[{"OBJECT_NAME":"OPTOS","OBJECT_ID":"2013-066E","EPOCH":"2026-03-09T15:19:15.595680","MEAN_MOTION":14.72053406,"ECCENTRICITY":0.01165171,"INCLINATION":97.6953,"RA_OF_ASC_NODE":298.8825,"ARG_OF_PERICENTER":333.077,"MEAN_ANOMALY":26.4421,"EPHEMERIS_TYPE":0,"CLASSIFICATION_TYPE":"U","NORAD_CAT_ID":39420,"ELEMENT_SET_NO":999,"REV_AT_EPOCH":65687,"BSTAR":0.00029036666,"MEAN_MOTION_DOT":1.977e-5,"MEAN_MOTION_DDOT":0},{"OBJECT_NAME":"FENGYUN 1C DEB","OBJECT_ID":"1999-025ATV","EPOCH":"2026-03-09T06:59:19.241952","MEAN_MOTION":14.56733735,"ECCENTRICITY":0.00092277,"INCLINATION":99.2547,"RA_OF_ASC_NODE":190.3607,"ARG_OF_PERICENTER":247.9155,"MEAN_ANOMALY":141.9374,"EPHEMERIS_TYPE":0,"CLASSIFICATION_TYPE":"U","NORAD_CAT_ID":30759,"ELEMENT_SET_NO":999,"REV_AT_EPOCH":98914,"BSTAR":0.0032063977,"MEAN_MOTION_DOT":0.00014315,"MEAN_MOTION_DDOT":0}]
